{
  "links" : {
    "next" : "https://api.nasa.gov/neo/rest/v1/neo/browse?page=33&size=20&api_key=jqAGvNAwUIBu4fl9FSOjdm3V4F7hIglRzI6pdX9d",
    "prev" : "https://api.nasa.gov/neo/rest/v1/neo/browse?page=31&size=20&api_key=jqAGvNAwUIBu4fl9FSOjdm3V4F7hIglRzI6pdX9d",
    "self" : "https://api.nasa.gov/neo/rest/v1/neo/browse?page=32&size=20&api_key=jqAGvNAwUIBu4fl9FSOjdm3V4F7hIglRzI6pdX9d"
  },
  "page" : {
    "size" : 20,
    "total_elements" : 20750,
    "total_pages" : 1038,
    "number" : 32
  },
  "near_earth_objects" : [ {
    "links" : {
      "self" : "https://api.nasa.gov/neo/rest/v1/neo/3376263?api_key=jqAGvNAwUIBu4fl9FSOjdm3V4F7hIglRzI6pdX9d"
    },
    "neo_reference_id" : "3376263",
    "name" : "(2007 JZ2)",
    "designation" : "2007 JZ2",
    "nasa_jpl_url" : "http://ssd.jpl.nasa.gov/sbdb.cgi?sstr=3376263",
    "absolute_magnitude_h" : 25.9,
    "estimated_diameter" : {
      "kilometers" : {
        "estimated_diameter_min" : 0.0175612318,
        "estimated_diameter_max" : 0.0392681082
      },
      "meters" : {
        "estimated_diameter_min" : 17.561231848,
        "estimated_diameter_max" : 39.2681081809
      },
      "miles" : {
        "estimated_diameter_min" : 0.0109120402,
        "estimated_diameter_max" : 0.0244000636
      },
      "feet" : {
        "estimated_diameter_min" : 57.6155918963,
        "estimated_diameter_max" : 128.8323800441
      }
    },
    "is_potentially_hazardous_asteroid" : false,
    "close_approach_data" : [ {
      "close_approach_date" : "2007-05-14",
      "epoch_date_close_approach" : 1179126000000,
      "relative_velocity" : {
        "kilometers_per_second" : "13.6080239229",
        "kilometers_per_hour" : "48988.8861223986",
        "miles_per_hour" : "30439.7887131093"
      },
      "miss_distance" : {
        "astronomical" : "0.0181205969",
        "lunar" : "7.0489120483",
        "kilometers" : "2710802.75",
        "miles" : "1684414.625"
      },
      "orbiting_body" : "Earth"
    } ],
    "orbital_data" : {
      "orbit_id" : "7",
      "orbit_determination_date" : "2017-04-06 09:06:28",
      "first_observation_date" : "2007-05-09",
      "last_observation_date" : "2007-05-12",
      "data_arc_in_days" : 3,
      "observations_used" : 14,
      "orbit_uncertainty" : "9",
      "minimum_orbit_intersection" : ".0129305",
      "jupiter_tisserand_invariant" : "3.814",
      "epoch_osculation" : "2454230.5",
      "eccentricity" : ".5369717259955564",
      "semi_major_axis" : "1.848473822262327",
      "inclination" : "6.75406732475933",
      "ascending_node_longitude" : "48.84580437023397",
      "orbital_period" : "917.9486420404228",
      "perihelion_distance" : ".8558956434645218",
      "perihelion_argument" : "242.460615376038",
      "aphelion_distance" : "2.841052001060132",
      "perihelion_time" : "2454277.049630532961",
      "mean_anomaly" : "341.7442215997875",
      "mean_motion" : ".392178803380317",
      "equinox" : "J2000",
      "orbit_class" : {
        "orbit_class_type" : "APO",
        "orbit_class_range" : "a (semi-major axis) > 1.0 AU; q (perihelion) < 1.017 AU",
        "orbit_class_description" : "Near-Earth asteroid orbits which cross the Earth’s orbit similar to that of 1862 Apollo"
      }
    },
    "is_sentry_object" : false
  }, {
    "links" : {
      "self" : "https://api.nasa.gov/neo/rest/v1/neo/3376341?api_key=jqAGvNAwUIBu4fl9FSOjdm3V4F7hIglRzI6pdX9d"
    },
    "neo_reference_id" : "3376341",
    "name" : "(2007 JW9)",
    "designation" : "2007 JW9",
    "nasa_jpl_url" : "http://ssd.jpl.nasa.gov/sbdb.cgi?sstr=3376341",
    "absolute_magnitude_h" : 24.3,
    "estimated_diameter" : {
      "kilometers" : {
        "estimated_diameter_min" : 0.0366906138,
        "estimated_diameter_max" : 0.0820427065
      },
      "meters" : {
        "estimated_diameter_min" : 36.6906137531,
        "estimated_diameter_max" : 82.0427064882
      },
      "miles" : {
        "estimated_diameter_min" : 0.0227984834,
        "estimated_diameter_max" : 0.0509789586
      },
      "feet" : {
        "estimated_diameter_min" : 120.3760332259,
        "estimated_diameter_max" : 269.1689931548
      }
    },
    "is_potentially_hazardous_asteroid" : false,
    "close_approach_data" : [ {
      "close_approach_date" : "2007-04-20",
      "epoch_date_close_approach" : 1177052400000,
      "relative_velocity" : {
        "kilometers_per_second" : "4.1460732066",
        "kilometers_per_hour" : "14925.8635436378",
        "miles_per_hour" : "9274.3511557676"
      },
      "miss_distance" : {
        "astronomical" : "0.1312815806",
        "lunar" : "51.0685348511",
        "kilometers" : "19639446",
        "miles" : "12203386"
      },
      "orbiting_body" : "Earth"
    } ],
    "orbital_data" : {
      "orbit_id" : "8",
      "orbit_determination_date" : "2017-04-06 09:06:28",
      "first_observation_date" : "2007-05-10",
      "last_observation_date" : "2007-05-24",
      "data_arc_in_days" : 14,
      "observations_used" : 25,
      "orbit_uncertainty" : "8",
      "minimum_orbit_intersection" : ".130953",
      "jupiter_tisserand_invariant" : "3.683",
      "epoch_osculation" : "2454234.5",
      "eccentricity" : ".4415975766985519",
      "semi_major_axis" : "2.03016614472648",
      "inclination" : "2.498652889188011",
      "ascending_node_longitude" : "230.9557906202073",
      "orbital_period" : "1056.563974681863",
      "perihelion_distance" : "1.133649694919825",
      "perihelion_argument" : "334.9536665960788",
      "aphelion_distance" : "2.926682594533135",
      "perihelion_time" : "2454207.562206589519",
      "mean_anomaly" : "9.17843676308684",
      "mean_motion" : ".3407271198210199",
      "equinox" : "J2000",
      "orbit_class" : {
        "orbit_class_type" : "AMO",
        "orbit_class_range" : "1.017 AU < q (perihelion) < 1.3 AU",
        "orbit_class_description" : "Near-Earth asteroid orbits similar to that of 1221 Amor"
      }
    },
    "is_sentry_object" : false
  }, {
    "links" : {
      "self" : "https://api.nasa.gov/neo/rest/v1/neo/3376342?api_key=jqAGvNAwUIBu4fl9FSOjdm3V4F7hIglRzI6pdX9d"
    },
    "neo_reference_id" : "3376342",
    "name" : "(2007 JF16)",
    "designation" : "2007 JF16",
    "nasa_jpl_url" : "http://ssd.jpl.nasa.gov/sbdb.cgi?sstr=3376342",
    "absolute_magnitude_h" : 18.7,
    "estimated_diameter" : {
      "kilometers" : {
        "estimated_diameter_min" : 0.4836764882,
        "estimated_diameter_max" : 1.0815335068
      },
      "meters" : {
        "estimated_diameter_min" : 483.6764882185,
        "estimated_diameter_max" : 1081.533506775
      },
      "miles" : {
        "estimated_diameter_min" : 0.3005425432,
        "estimated_diameter_max" : 0.6720335566
      },
      "feet" : {
        "estimated_diameter_min" : 1586.8651696069,
        "estimated_diameter_max" : 3548.3383903678
      }
    },
    "is_potentially_hazardous_asteroid" : false,
    "close_approach_data" : [ {
      "close_approach_date" : "2006-10-17",
      "epoch_date_close_approach" : 1161068400000,
      "relative_velocity" : {
        "kilometers_per_second" : "34.4450442027",
        "kilometers_per_hour" : "124002.1591298143",
        "miles_per_hour" : "77050.1193770782"
      },
      "miss_distance" : {
        "astronomical" : "0.3240996511",
        "lunar" : "126.0747680664",
        "kilometers" : "48484620",
        "miles" : "30126946"
      },
      "orbiting_body" : "Earth"
    } ],
    "orbital_data" : {
      "orbit_id" : "9",
      "orbit_determination_date" : "2017-04-06 09:06:28",
      "first_observation_date" : "2007-05-10",
      "last_observation_date" : "2007-05-24",
      "data_arc_in_days" : 14,
      "observations_used" : 22,
      "orbit_uncertainty" : "9",
      "minimum_orbit_intersection" : ".247065",
      "jupiter_tisserand_invariant" : "3.217",
      "epoch_osculation" : "2454234.5",
      "eccentricity" : ".6779795391753203",
      "semi_major_axis" : "2.032892227987664",
      "inclination" : "44.33910349520098",
      "ascending_node_longitude" : "225.5989408241009",
      "orbital_period" : "1058.69280147194",
      "perihelion_distance" : ".6546328920634975",
      "perihelion_argument" : "221.2107677055969",
      "aphelion_distance" : "3.411151563911831",
      "perihelion_time" : "2454050.603250587611",
      "mean_anomaly" : "62.5326154068638",
      "mean_motion" : ".3400419833774997",
      "equinox" : "J2000",
      "orbit_class" : {
        "orbit_class_type" : "APO",
        "orbit_class_range" : "a (semi-major axis) > 1.0 AU; q (perihelion) < 1.017 AU",
        "orbit_class_description" : "Near-Earth asteroid orbits which cross the Earth’s orbit similar to that of 1862 Apollo"
      }
    },
    "is_sentry_object" : false
  } ]
}